{
  "type": "FeatureCollection",
  "features": [
    {
      "type": "Feature",
      "properties": {
        "norad_id": 2807,
        "name": "OPS 7218 (TRANSIT 16)",
        "group": "nnss",
        "lat": -40.872861622525996,
        "lon": 173.81826596158447,
        "alt_km": 1089.7164919600345,
        "timestamp": "2025-12-27T05:29:39.471512+00:00",
        "meta_object_name": "OPS 7218 (TRANSIT 16)",
        "meta_object_id": "1967-048A",
        "meta_epoch": "2025-12-26T23:19:59.375136",
        "meta_mean_motion": 13.50725217,
        "meta_eccentricity": 0.00221237,
        "meta_inclination": 89.6735,
        "meta_ra_of_asc_node": 353.544,
        "meta_arg_of_pericenter": 76.2201,
        "meta_mean_anomaly": 336.8586,
        "meta_ephemeris_type": 0,
        "meta_classification_type": "U",
        "meta_norad_cat_id": 2807,
        "meta_element_set_no": 999,
        "meta_rev_at_epoch": 88468,
        "meta_bstar": 0.00016668264,
        "meta_mean_motion_dot": 1.18e-06,
        "meta_mean_motion_ddot": 0,
        "tle_line1": "1 02807U 67048A   25360.97221499  .00000118  00000+0  16668-3 0  9990",
        "tle_line2": "2 02807  89.6735 353.5440 0022123  76.2201 336.8586 13.50725217884685"
      },
      "geometry": {
        "type": "Point",
        "coordinates": [
          173.81826596158447,
          -40.872861622525996
        ]
      }
    },
    {
      "type": "Feature",
      "properties": {
        "norad_id": 2965,
        "name": "OPS 4947 (TRANSIT 17)",
        "group": "nnss",
        "lat": 66.94281268752562,
        "lon": 25.096749340938974,
        "alt_km": 1073.0230045389953,
        "timestamp": "2025-12-27T05:29:39.471535+00:00",
        "meta_object_name": "OPS 4947 (TRANSIT 17)",
        "meta_object_id": "1967-092A",
        "meta_epoch": "2025-12-27T00:08:15.102240",
        "meta_mean_motion": 13.53457391,
        "meta_eccentricity": 0.00472777,
        "meta_inclination": 89.2485,
        "meta_ra_of_asc_node": 23.3468,
        "meta_arg_of_pericenter": 192.2992,
        "meta_mean_anomaly": 228.2673,
        "meta_ephemeris_type": 0,
        "meta_classification_type": "U",
        "meta_norad_cat_id": 2965,
        "meta_element_set_no": 999,
        "meta_rev_at_epoch": 87290,
        "meta_bstar": 0.00020302152,
        "meta_mean_motion_dot": 1.49e-06,
        "meta_mean_motion_ddot": 0,
        "tle_line1": "1 02965U 67092A   25361.00573035  .00000149  00000+0  20302-3 0  9999",
        "tle_line2": "2 02965  89.2485  23.3468 0047277 192.2992 228.2673 13.53457391872904"
      },
      "geometry": {
        "type": "Point",
        "coordinates": [
          25.096749340938974,
          66.94281268752562
        ]
      }
    },
    {
      "type": "Feature",
      "properties": {
        "norad_id": 3133,
        "name": "OPS 7034 (TRANSIT 18)",
        "group": "nnss",
        "lat": 61.84698294725381,
        "lon": 93.7336060357105,
        "alt_km": 1005.3839571930703,
        "timestamp": "2025-12-27T05:29:39.471548+00:00",
        "meta_object_name": "OPS 7034 (TRANSIT 18)",
        "meta_object_id": "1968-012A",
        "meta_epoch": "2025-12-26T18:31:16.182912",
        "meta_mean_motion": 13.51569067,
        "meta_eccentricity": 0.00750978,
        "meta_inclination": 90.0285,
        "meta_ra_of_asc_node": 273.679,
        "meta_arg_of_pericenter": 128.8758,
        "meta_mean_anomaly": 286.0505,
        "meta_ephemeris_type": 0,
        "meta_classification_type": "U",
        "meta_norad_cat_id": 3133,
        "meta_element_set_no": 999,
        "meta_rev_at_epoch": 57108,
        "meta_bstar": 0.00020640166,
        "meta_mean_motion_dot": 1.47e-06,
        "meta_mean_motion_ddot": 0,
        "tle_line1": "1 03133U 68012A   25360.77171508  .00000147  00000+0  20640-3 0  9995",
        "tle_line2": "2 03133  90.0285 273.6790 0075097 128.8758 286.0505 13.51569067571087"
      },
      "geometry": {
        "type": "Point",
        "coordinates": [
          93.7336060357105,
          61.84698294725381
        ]
      }
    },
    {
      "type": "Feature",
      "properties": {
        "norad_id": 4507,
        "name": "NNSS 19 (TRANSIT 19)",
        "group": "nnss",
        "lat": 76.41367468176686,
        "lon": -125.47556240899658,
        "alt_km": 1186.4803886490326,
        "timestamp": "2025-12-27T05:29:39.471560+00:00",
        "meta_object_name": "NNSS 19 (TRANSIT 19)",
        "meta_object_id": "1970-067A",
        "meta_epoch": "2025-12-26T14:53:26.024640",
        "meta_mean_motion": 13.51317911,
        "meta_eccentricity": 0.0170229,
        "meta_inclination": 90.0046,
        "meta_ra_of_asc_node": 234.5432,
        "meta_arg_of_pericenter": 252.7431,
        "meta_mean_anomaly": 105.5031,
        "meta_ephemeris_type": 0,
        "meta_classification_type": "U",
        "meta_norad_cat_id": 4507,
        "meta_element_set_no": 999,
        "meta_rev_at_epoch": 72409,
        "meta_bstar": 0.00012342,
        "meta_mean_motion_dot": 9.5e-07,
        "meta_mean_motion_ddot": 0,
        "tle_line1": "1 04507U 70067A   25360.62044010  .00000095  00000+0  12342-3 0  9997",
        "tle_line2": "2 04507  90.0046 234.5432 0170229 252.7431 105.5031 13.51317911724094"
      },
      "geometry": {
        "type": "Point",
        "coordinates": [
          -125.47556240899658,
          76.41367468176686
        ]
      }
    },
    {
      "type": "Feature",
      "properties": {
        "norad_id": 6909,
        "name": "NNSS 20 (TRANSIT 20)",
        "group": "nnss",
        "lat": 60.8004434766692,
        "lon": 74.57904646397905,
        "alt_km": 974.418484173757,
        "timestamp": "2025-12-27T05:29:39.471571+00:00",
        "meta_object_name": "NNSS 20 (TRANSIT 20)",
        "meta_object_id": "1973-081A",
        "meta_epoch": "2025-12-26T04:24:52.750368",
        "meta_mean_motion": 13.7144138,
        "meta_eccentricity": 0.0156059,
        "meta_inclination": 89.8559,
        "meta_ra_of_asc_node": 254.8528,
        "meta_arg_of_pericenter": 38.4618,
        "meta_mean_anomaly": 322.7546,
        "meta_ephemeris_type": 0,
        "meta_classification_type": "U",
        "meta_norad_cat_id": 6909,
        "meta_element_set_no": 999,
        "meta_rev_at_epoch": 80545,
        "meta_bstar": 0.00027705,
        "meta_mean_motion_dot": 2.83e-06,
        "meta_mean_motion_ddot": 0,
        "tle_line1": "1 06909U 73081A   25360.18394387  .00000283  00000+0  27705-3 0  9998",
        "tle_line2": "2 06909  89.8559 254.8528 0156059  38.4618 322.7546 13.71441380805453"
      },
      "geometry": {
        "type": "Point",
        "coordinates": [
          74.57904646397905,
          60.8004434766692
        ]
      }
    },
    {
      "type": "Feature",
      "properties": {
        "norad_id": 10457,
        "name": "TRANSAT",
        "group": "nnss",
        "lat": -41.93941507121568,
        "lon": 77.76645039600211,
        "alt_km": 1102.3203985294813,
        "timestamp": "2025-12-27T05:29:39.471582+00:00",
        "meta_object_name": "TRANSAT",
        "meta_object_id": "1977-106A",
        "meta_epoch": "2025-12-26T23:26:10.304160",
        "meta_mean_motion": 13.48945827,
        "meta_eccentricity": 0.00266559,
        "meta_inclination": 89.6473,
        "meta_ra_of_asc_node": 78.0925,
        "meta_arg_of_pericenter": 149.2832,
        "meta_mean_anomaly": 23.7327,
        "meta_ephemeris_type": 0,
        "meta_classification_type": "U",
        "meta_norad_cat_id": 10457,
        "meta_element_set_no": 999,
        "meta_rev_at_epoch": 36935,
        "meta_bstar": 0.00012463457,
        "meta_mean_motion_dot": 8.9e-07,
        "meta_mean_motion_ddot": 0,
        "tle_line1": "1 10457U 77106A   25360.97650815  .00000089  00000+0  12463-3 0  9990",
        "tle_line2": "2 10457  89.6473  78.0925 0026655 149.2832  23.7327 13.48945827369351"
      },
      "geometry": {
        "type": "Point",
        "coordinates": [
          77.76645039600211,
          -41.93941507121568
        ]
      }
    },
    {
      "type": "Feature",
      "properties": {
        "norad_id": 12458,
        "name": "NOVA 1",
        "group": "nnss",
        "lat": -37.55349300659875,
        "lon": 91.06668486579503,
        "alt_km": 1181.7959102257728,
        "timestamp": "2025-12-27T05:29:39.471593+00:00",
        "meta_object_name": "NOVA 1",
        "meta_object_id": "1981-044A",
        "meta_epoch": "2025-12-26T19:24:00.790272",
        "meta_mean_motion": 13.23280067,
        "meta_eccentricity": 0.00156723,
        "meta_inclination": 89.8524,
        "meta_ra_of_asc_node": 91.1862,
        "meta_arg_of_pericenter": 69.399,
        "meta_mean_anomaly": 50.8821,
        "meta_ephemeris_type": 0,
        "meta_classification_type": "U",
        "meta_norad_cat_id": 12458,
        "meta_element_set_no": 999,
        "meta_rev_at_epoch": 15372,
        "meta_bstar": 0.00010692404,
        "meta_mean_motion_dot": 5.4e-07,
        "meta_mean_motion_ddot": 0,
        "tle_line1": "1 12458U 81044A   25360.80834248  .00000054  00000+0  10692-3 0  9999",
        "tle_line2": "2 12458  89.8524  91.1862 0015672  69.3990  50.8821 13.23280067153726"
      },
      "geometry": {
        "type": "Point",
        "coordinates": [
          91.06668486579503,
          -37.55349300659875
        ]
      }
    }
  ]
}